start=new Date('2022-08-23T00:00:00.000Z').valueOf();
sats=[{"OBJECT_ID":"2022-005H","REF_FRAME":"TEME","EPHEMERIS_TYPE":"0","BSTAR":"0.00014547000000","DECAY_DATE":null,"MEAN_ANOMALY":"291.2015","TIME_SYSTEM":"UTC","NORAD_CAT_ID":"51111","SITE":"AFETR","ARG_OF_PERICENTER":"68.9129","TLE_LINE1":"1 51111U 22005H   22234.35235380  .00002028  00000-0  14547-3 0  9996","LAUNCH_DATE":"2022-01-19","SEMIMAJOR_AXIS":"6917.896","CLASSIFICATION_TYPE":"U","TLE_LINE2":"2 51111  53.2195 344.1131 0001424  68.9129 291.2015 15.08834822 33321","MEAN_ELEMENT_THEORY":"SGP4","MEAN_MOTION_DDOT":"0.0000000000000","RA_OF_ASC_NODE":"344.1131","APOAPSIS":"540.746","ELEMENT_SET_NO":"999","MEAN_MOTION_DOT":"0.00002028","PERIAPSIS":"538.776","CENTER_NAME":"EARTH","FILE":"3543757","GP_ID":"210744309","OBJECT_TYPE":"PAYLOAD","MEAN_MOTION":"15.08834822","REV_AT_EPOCH":"3332","COUNTRY_CODE":"US","INCLINATION":"53.2195","EPOCH":"2022-08-22T08:27:23.368320","OBJECT_NAME":"STARLINK-3173","RCS_SIZE":"LARGE","ECCENTRICITY":"0.00014240","PERIOD":"95.438"},{"EPOCH":"2022-08-22T18:31:31.000512","INCLINATION":"53.2203","COUNTRY_CODE":"US","REV_AT_EPOCH":"3339","PERIOD":"95.438","ECCENTRICITY":"0.00015590","RCS_SIZE":"LARGE","OBJECT_NAME":"STARLINK-3374","MEAN_MOTION_DOT":"0.00000984","ELEMENT_SET_NO":"999","APOAPSIS":"540.860","MEAN_MOTION_DDOT":"0.0000000000000","RA_OF_ASC_NODE":"342.2363","MEAN_MOTION":"15.08828217","OBJECT_TYPE":"PAYLOAD","GP_ID":"210778750","FILE":"3544179","PERIAPSIS":"538.703","CENTER_NAME":"EARTH","TLE_LINE2":"2 51112  53.2203 342.2363 0001559  55.8919 304.2221 15.08828217 33391","CLASSIFICATION_TYPE":"U","MEAN_ELEMENT_THEORY":"SGP4","TIME_SYSTEM":"UTC","BSTAR":"0.00007992300000","DECAY_DATE":null,"MEAN_ANOMALY":"304.2221","EPHEMERIS_TYPE":"0","REF_FRAME":"TEME","OBJECT_ID":"2022-005J","LAUNCH_DATE":"2022-01-19","SEMIMAJOR_AXIS":"6917.916","TLE_LINE1":"1 51112U 22005J   22234.77188658  .00000984  00000-0  79923-4 0  9997","ARG_OF_PERICENTER":"55.8919","NORAD_CAT_ID":"51112","SITE":"AFETR"},{"ARG_OF_PERICENTER":"64.2936","TLE_LINE1":"1 51113U 22005K   22234.69460058  .00000577  00000-0  54361-4 0  9993","SEMIMAJOR_AXIS":"6917.886","LAUNCH_DATE":"2022-01-19","NORAD_CAT_ID":"51113","SITE":"AFETR","BSTAR":"0.00005436100000","DECAY_DATE":null,"MEAN_ANOMALY":"295.8212","TIME_SYSTEM":"UTC","OBJECT_ID":"2022-005K","REF_FRAME":"TEME","EPHEMERIS_TYPE":"0","MEAN_ELEMENT_THEORY":"SGP4","CLASSIFICATION_TYPE":"U","TLE_LINE2":"2 51113  53.2181 342.5720 0001504  64.2936 295.8212 15.08838272 33375","GP_ID":"210777498","OBJECT_TYPE":"PAYLOAD","MEAN_MOTION":"15.08838272","CENTER_NAME":"EARTH","PERIAPSIS":"538.710","FILE":"3544179","ELEMENT_SET_NO":"999","APOAPSIS":"540.791","MEAN_MOTION_DOT":"0.00000577","MEAN_MOTION_DDOT":"0.0000000000000","RA_OF_ASC_NODE":"342.5720","RCS_SIZE":"LARGE","ECCENTRICITY":"0.00015040","PERIOD":"95.438","OBJECT_NAME":"STARLINK-3372","INCLINATION":"53.2181","EPOCH":"2022-08-22T16:40:13.490112","REV_AT_EPOCH":"3337","COUNTRY_CODE":"US"},{"MEAN_MOTION":"15.08838665","OBJECT_TYPE":"PAYLOAD","GP_ID":"210777748","FILE":"3544179","CENTER_NAME":"EARTH","PERIAPSIS":"538.820","MEAN_MOTION_DOT":"0.00002337","APOAPSIS":"540.679","ELEMENT_SET_NO":"999","RA_OF_ASC_NODE":"343.4030","MEAN_MOTION_DDOT":"0.0000000000000","PERIOD":"95.438","ECCENTRICITY":"0.00013430","RCS_SIZE":"LARGE","OBJECT_NAME":"STARLINK-3375","EPOCH":"2022-08-22T12:20:33.272736","INCLINATION":"53.2182","COUNTRY_CODE":"US","REV_AT_EPOCH":"3335","SEMIMAJOR_AXIS":"6917.884","LAUNCH_DATE":"2022-01-19","TLE_LINE1":"1 51114U 22005L   22234.51427399  .00002337  00000-0  16489-3 0  9990","ARG_OF_PERICENTER":"54.0383","SITE":"AFETR","NORAD_CAT_ID":"51114","TIME_SYSTEM":"UTC","DECAY_DATE":null,"BSTAR":"0.00016489000000","MEAN_ANOMALY":"306.0734","EPHEMERIS_TYPE":"0","REF_FRAME":"TEME","OBJECT_ID":"2022-005L","MEAN_ELEMENT_THEORY":"SGP4","CLASSIFICATION_TYPE":"U","TLE_LINE2":"2 51114  53.2182 343.4030 0001343  54.0383 306.0734 15.08838665 33353"},{"TLE_LINE2":"2 51115  53.2183 346.7662 0001569  63.2233 296.8920 15.08826020 33230","CLASSIFICATION_TYPE":"U","MEAN_ELEMENT_THEORY":"SGP4","MEAN_ANOMALY":"296.8920","DECAY_DATE":null,"BSTAR":"0.00017252000000","TIME_SYSTEM":"UTC","OBJECT_ID":"2022-005M","REF_FRAME":"TEME","EPHEMERIS_TYPE":"0","ARG_OF_PERICENTER":"63.2233","TLE_LINE1":"1 51115U 22005M   22233.75987975  .00002458  00000-0  17252-3 0  9990","LAUNCH_DATE":"2022-01-19","SEMIMAJOR_AXIS":"6917.923","NORAD_CAT_ID":"51115","SITE":"AFETR","INCLINATION":"53.2183","EPOCH":"2022-08-21T18:14:13.610400","REV_AT_EPOCH":"3323","COUNTRY_CODE":"US","RCS_SIZE":"LARGE","ECCENTRICITY":"0.00015690","PERIOD":"95.438","OBJECT_NAME":"STARLINK-3397","ELEMENT_SET_NO":"999","APOAPSIS":"540.874","MEAN_MOTION_DOT":"0.00002458","RA_OF_ASC_NODE":"346.7662","MEAN_MOTION_DDOT":"0.0000000000000","GP_ID":"210692858","OBJECT_TYPE":"PAYLOAD","MEAN_MOTION":"15.08826020","PERIAPSIS":"538.703","CENTER_NAME":"EARTH","FILE":"3542671"},{"MEAN_ELEMENT_THEORY":"SGP4","CLASSIFICATION_TYPE":"U","TLE_LINE2":"2 51116  53.2190 342.5404 0001672  61.9766 298.1395 15.08826288 33370","SITE":"AFETR","NORAD_CAT_ID":"51116","TLE_LINE1":"1 51116U 22005N   22234.70196659  .00000387  00000-0  42410-4 0  9992","LAUNCH_DATE":"2022-01-19","SEMIMAJOR_AXIS":"6917.922","ARG_OF_PERICENTER":"61.9766","EPHEMERIS_TYPE":"0","OBJECT_ID":"2022-005N","REF_FRAME":"TEME","TIME_SYSTEM":"UTC","DECAY_DATE":null,"MEAN_ANOMALY":"298.1395","BSTAR":"0.00004241000000","OBJECT_NAME":"STARLINK-3243","PERIOD":"95.438","RCS_SIZE":"LARGE","ECCENTRICITY":"0.00016720","REV_AT_EPOCH":"3337","COUNTRY_CODE":"US","EPOCH":"2022-08-22T16:50:49.913376","INCLINATION":"53.2190","FILE":"3544179","PERIAPSIS":"538.631","CENTER_NAME":"EARTH","MEAN_MOTION":"15.08826288","GP_ID":"210779250","OBJECT_TYPE":"PAYLOAD","RA_OF_ASC_NODE":"342.5404","MEAN_MOTION_DDOT":"0.0000000000000","APOAPSIS":"540.944","ELEMENT_SET_NO":"999","MEAN_MOTION_DOT":"0.00000387"},{"RCS_SIZE":"LARGE","ECCENTRICITY":"0.00016180","PERIOD":"95.438","OBJECT_NAME":"STARLINK-3391","INCLINATION":"53.2194","EPOCH":"2022-08-22T14:33:03.608928","REV_AT_EPOCH":"3336","COUNTRY_CODE":"US","GP_ID":"210777998","OBJECT_TYPE":"PAYLOAD","MEAN_MOTION":"15.08826910","PERIAPSIS":"538.666","CENTER_NAME":"EARTH","FILE":"3544179","APOAPSIS":"540.905","ELEMENT_SET_NO":"999","MEAN_MOTION_DOT":"-0.00000028","MEAN_MOTION_DDOT":"0.0000000000000","RA_OF_ASC_NODE":"342.9716","MEAN_ELEMENT_THEORY":"SGP4","CLASSIFICATION_TYPE":"U","TLE_LINE2":"2 51117  53.2194 342.9716 0001618  60.3730 299.7423 15.08826910 33369","ARG_OF_PERICENTER":"60.3730","TLE_LINE1":"1 51117U 22005P   22234.60629177 -.00000028  00000-0  16340-4 0  9994","SEMIMAJOR_AXIS":"6917.920","LAUNCH_DATE":"2022-01-19","SITE":"AFETR","NORAD_CAT_ID":"51117","DECAY_DATE":null,"BSTAR":"0.00001634000000","MEAN_ANOMALY":"299.7423","TIME_SYSTEM":"UTC","OBJECT_ID":"2022-005P","REF_FRAME":"TEME","EPHEMERIS_TYPE":"0"},{"MEAN_ELEMENT_THEORY":"SGP4","TLE_LINE2":"2 51118  53.2189 342.8863 0001709  52.2806 307.8341 15.08831143 33365","CLASSIFICATION_TYPE":"U","ARG_OF_PERICENTER":"52.2806","LAUNCH_DATE":"2022-01-19","SEMIMAJOR_AXIS":"6917.907","TLE_LINE1":"1 51118U 22005Q   22234.62468767  .00001223  00000-0  94960-4 0  9994","SITE":"AFETR","NORAD_CAT_ID":"51118","DECAY_DATE":null,"MEAN_ANOMALY":"307.8341","BSTAR":"0.00009496000000","TIME_SYSTEM":"UTC","REF_FRAME":"TEME","OBJECT_ID":"2022-005Q","EPHEMERIS_TYPE":"0","ECCENTRICITY":"0.00017090","RCS_SIZE":"LARGE","PERIOD":"95.438","OBJECT_NAME":"STARLINK-3394","INCLINATION":"53.2189","EPOCH":"2022-08-22T14:59:33.014688","COUNTRY_CODE":"US","REV_AT_EPOCH":"3336","OBJECT_TYPE":"PAYLOAD","GP_ID":"210778248","MEAN_MOTION":"15.08831143","PERIAPSIS":"538.590","CENTER_NAME":"EARTH","FILE":"3544179","MEAN_MOTION_DOT":"0.00001223","ELEMENT_SET_NO":"999","APOAPSIS":"540.955","RA_OF_ASC_NODE":"342.8863","MEAN_MOTION_DDOT":"0.0000000000000"},{"INCLINATION":"53.2192","EPOCH":"2022-08-22T16:03:07.459776","COUNTRY_CODE":"US","REV_AT_EPOCH":"3337","ECCENTRICITY":"0.00016760","RCS_SIZE":"LARGE","PERIOD":"95.438","OBJECT_NAME":"STARLINK-3390","MEAN_MOTION_DOT":"0.00002403","ELEMENT_SET_NO":"999","APOAPSIS":"540.919","MEAN_MOTION_DDOT":"0.0000000000000","RA_OF_ASC_NODE":"342.7033","OBJECT_TYPE":"PAYLOAD","GP_ID":"210779000","MEAN_MOTION":"15.08835329","PERIAPSIS":"538.600","CENTER_NAME":"EARTH","FILE":"3544179","TLE_LINE2":"2 51119  53.2192 342.7033 0001676  59.6732 300.4426 15.08835329 33374","CLASSIFICATION_TYPE":"U","MEAN_ELEMENT_THEORY":"SGP4","BSTAR":"0.00016903000000","DECAY_DATE":null,"MEAN_ANOMALY":"300.4426","TIME_SYSTEM":"UTC","REF_FRAME":"TEME","OBJECT_ID":"2022-005R","EPHEMERIS_TYPE":"0","ARG_OF_PERICENTER":"59.6732","LAUNCH_DATE":"2022-01-19","SEMIMAJOR_AXIS":"6917.895","TLE_LINE1":"1 51119U 22005R   22234.66883634  .00002403  00000-0  16903-3 0  9994","SITE":"AFETR","NORAD_CAT_ID":"51119"},{"CENTER_NAME":"EARTH","PERIAPSIS":"538.579","FILE":"3544179","OBJECT_TYPE":"PAYLOAD","GP_ID":"210778751","MEAN_MOTION":"15.08829710","RA_OF_ASC_NODE":"342.4450","MEAN_MOTION_DDOT":"0.0000000000000","MEAN_MOTION_DOT":"0.00002503","ELEMENT_SET_NO":"999","APOAPSIS":"540.974","OBJECT_NAME":"STARLINK-3398","ECCENTRICITY":"0.00017310","RCS_SIZE":"LARGE","PERIOD":"95.438","COUNTRY_CODE":"US","REV_AT_EPOCH":"3338","INCLINATION":"53.2180","EPOCH":"2022-08-22T17:27:55.519488","SITE":"AFETR","NORAD_CAT_ID":"51120","ARG_OF_PERICENTER":"54.6084","LAUNCH_DATE":"2022-01-19","SEMIMAJOR_AXIS":"6917.912","TLE_LINE1":"1 51120U 22005S   22234.72772592  .00002503  00000-0  17534-3 0  9995","REF_FRAME":"TEME","OBJECT_ID":"2022-005S","EPHEMERIS_TYPE":"0","DECAY_DATE":null,"BSTAR":"0.00017534000000","MEAN_ANOMALY":"305.5069","TIME_SYSTEM":"UTC","MEAN_ELEMENT_THEORY":"SGP4","CLASSIFICATION_TYPE":"U","TLE_LINE2":"2 51120  53.2180 342.4450 0001731  54.6084 305.5069 15.08829710 33387"}];
